Results
*******************************************************************************
 Revised: Aug 07, 2025               Erriapus / (Saturn)                     628

 For mean orbital elements, see https://ssd.jpl.nasa.gov/sats/elem/
 Recently discovered Saturnian irregular.
*******************************************************************************


*******************************************************************************
Ephemeris / API_USER Wed Apr 22 07:24:32 2026 Pasadena, USA      / Horizons    
*******************************************************************************
Target body name: Erriapus (628)                  {source: sat456_merged_DE440}
Center body name: Earth (399)                     {source: sat456_merged_DE440}
Center-site name: GEOCENTRIC
*******************************************************************************
Start time      : A.D. 2020-Jan-01 00:00:00.0000 UT      
Stop  time      : A.D. 2020-Dec-20 00:00:00.0000 UT      
Step-size       : 1440 minutes
*******************************************************************************
Target pole/equ : undefined
Target radii    : undefined                                                    
Center geodetic : 0.0, 0.0, -6378.137             {E-lon(deg),Lat(deg),Alt(km)}
Center cylindric: 0.0, 0.0, 0.0                   {E-lon(deg),Dxy(km),Dz(km)}
Center pole/equ : ITRF93                          {East-longitude positive}
Center radii    : 6378.137, 6378.137, 6356.752 km {Equator_a, b, pole_c}       
Target primary  : Saturn
Vis. interferer : MOON (R_eq= 1737.400) km        {source: sat456_merged_DE440}
Rel. light bend : Sun                             {source: sat456_merged_DE440}
Rel. lght bnd GM: 1.3271E+11 km^3/s^2                                          
Atmos refraction: NO (AIRLESS)
RA format       : HMS
Time format     : CAL 
Calendar mode   : Mixed Julian/Gregorian
EOP file        : eop.260421.p260718                                           
EOP coverage    : DATA-BASED 1962-JAN-20 TO 2026-APR-21. PREDICTS-> 2026-JUL-17
Units conversion: 1 au= 149597870.700 km, c= 299792.458 km/s, 1 day= 86400.0 s 
Table cut-offs 1: Elevation (-90.0deg=NO ),Airmass (>38.000=NO), Daylight (NO )
Table cut-offs 2: Solar elongation (  0.0,180.0=NO ),Local Hour Angle( 0.0=NO )
Table cut-offs 3: RA/DEC angular rate (     0.0=NO )                           
**************************************************************************************************************************
 Date__(UT)__HR:MN     R.A._____(ICRF)_____DEC    APmag   S-brt             delta      deldot     S-O-T /r     S-T-O  Cnst
**************************************************************************************************************************
$$SOE
 2020-Apr-26 00:00     20 11 49.39 -19 31 24.2     n.a.    n.a.  9.94621787727610 -27.8939992   95.1016 /L    5.7057   Cap
 2020-Apr-27 00:00     20 11 54.96 -19 31 09.2     n.a.    n.a.  9.93012086414103 -27.8474712   96.0524 /L    5.6977   Cap
 2020-Apr-28 00:00     20 12 00.14 -19 30 55.6     n.a.    n.a.  9.91405314178080 -27.7925763   97.0042 /L    5.6882   Cap
 2020-Apr-29 00:00     20 12 04.92 -19 30 43.3     n.a.    n.a.  9.89801952305312 -27.7293861   97.9571 /L    5.6770   Cap
 2020-Apr-30 00:00     20 12 09.30 -19 30 32.2     n.a.    n.a.  9.88202477164692 -27.6579994   98.9110 /L    5.6643   Cap
 2020-May-01 00:00     20 12 13.29 -19 30 22.5     n.a.    n.a.  9.86607358591199 -27.5785440   99.8659 /L    5.6499   Cap
 2020-May-02 00:00     20 12 16.87 -19 30 14.1     n.a.    n.a.  9.85017058213412 -27.4911760  100.8219 /L    5.6339   Cap
 2020-May-03 00:00     20 12 20.07 -19 30 07.0     n.a.    n.a.  9.83432027889169 -27.3960764  101.7789 /L    5.6163   Cap
 2020-May-04 00:00     20 12 22.86 -19 30 01.1     n.a.    n.a.  9.81852708591788 -27.2934384  102.7369 /L    5.5971   Cap
 2020-May-05 00:00     20 12 25.26 -19 29 56.7     n.a.    n.a.  9.80279530260888 -27.1834463  103.6960 /L    5.5763   Cap
 2020-May-06 00:00     20 12 27.26 -19 29 53.5     n.a.    n.a.  9.78712913155369 -27.0662459  104.6562 /L    5.5538   Cap
 2020-May-07 00:00     20 12 28.87 -19 29 51.6     n.a.    n.a.  9.77153270964435 -26.9419147  105.6174 /L    5.5298   Cap
 2020-May-08 00:00     20 12 30.08 -19 29 51.1     n.a.    n.a.  9.75601015335587 -26.8104445  106.5798 /L    5.5041   Cap
 2020-May-09 00:00     20 12 30.89 -19 29 51.8     n.a.    n.a.  9.74056560837401 -26.6717447  107.5434 /L    5.4769   Cap
 2020-May-10 00:00     20 12 31.31 -19 29 53.9     n.a.    n.a.  9.72520329119993 -26.5256659  108.5081 /L    5.4480   Cap
 2020-May-11 00:00     20 12 31.33 -19 29 57.3     n.a.    n.a.  9.70992751378751 -26.3720325  109.4741 /L    5.4176   Cap
 2020-May-12 00:00     20 12 30.95 -19 30 02.0     n.a.    n.a.  9.69474268933904 -26.2106738  110.4412 /L    5.3855   Cap
 2020-May-13 00:00     20 12 30.19 -19 30 08.1     n.a.    n.a.  9.67965332355811 -26.0414424  111.4096 /L    5.3518   Cap
 2020-May-14 00:00     20 12 29.02 -19 30 15.4     n.a.    n.a.  9.66466399815284 -25.8642228  112.3793 /L    5.3165   Cap
 2020-May-15 00:00     20 12 27.46 -19 30 24.1     n.a.    n.a.  9.64977935257028 -25.6789301  113.3502 /L    5.2796   Cap
 2020-May-16 00:00     20 12 25.51 -19 30 34.0     n.a.    n.a.  9.63500406759423 -25.4855051  114.3223 /L    5.2411   Cap
 2020-May-17 00:00     20 12 23.16 -19 30 45.3     n.a.    n.a.  9.62034285218288 -25.2839084  115.2957 /L    5.2010   Cap
 2020-May-18 00:00     20 12 20.42 -19 30 57.9     n.a.    n.a.  9.60580043338927 -25.0741162  116.2703 /L    5.1593   Cap
 2020-May-19 00:00     20 12 17.29 -19 31 11.7     n.a.    n.a.  9.59138154838995 -24.8561170  117.2462 /L    5.1161   Cap
 2020-May-20 00:00     20 12 13.77 -19 31 26.9     n.a.    n.a.  9.57709093733331 -24.6299121  118.2233 /L    5.0712   Cap
 2020-May-21 00:00     20 12 09.86 -19 31 43.4     n.a.    n.a.  9.56293333571409 -24.3955169  119.2017 /L    5.0248   Cap
 2020-May-22 00:00     20 12 05.57 -19 32 01.1     n.a.    n.a.  9.54891346518688 -24.1529645  120.1812 /L    4.9768   Cap
 2020-May-23 00:00     20 12 00.90 -19 32 20.1     n.a.    n.a.  9.53503602210543 -23.9023101  121.1619 /L    4.9273   Cap
 2020-May-24 00:00     20 11 55.84 -19 32 40.4     n.a.    n.a.  9.52130566358132 -23.6436351  122.1439 /L    4.8762   Cap
 2020-May-25 00:00     20 11 50.41 -19 33 01.9     n.a.    n.a.  9.50772699141353 -23.3770501  123.1269 /L    4.8236   Cap
 2020-May-26 00:00     20 11 44.60 -19 33 24.7     n.a.    n.a.  9.49430453472285 -23.1026962  124.1111 /L    4.7694   Cap
 2020-May-27 00:00     20 11 38.42 -19 33 48.7     n.a.    n.a.  9.48104273241221 -22.8207443  125.0964 /L    4.7138   Cap
 2020-May-28 00:00     20 11 31.87 -19 34 13.9     n.a.    n.a.  9.46794591662768 -22.5313927  126.0828 /L    4.6567   Cap
 2020-May-29 00:00     20 11 24.96 -19 34 40.3     n.a.    n.a.  9.45501829831749 -22.2348620  127.0703 /L    4.5980   Cap
 2020-May-30 00:00     20 11 17.69 -19 35 07.9     n.a.    n.a.  9.44226395598438 -21.9313888  128.0588 /L    4.5380   Cap
 2020-May-31 00:00     20 11 10.06 -19 35 36.7     n.a.    n.a.  9.42968682899664 -21.6212164  129.0484 /L    4.4764   Cap
 2020-Jun-01 00:00     20 11 02.08 -19 36 06.6     n.a.    n.a.  9.41729071741246 -21.3045814  130.0390 /L    4.4135   Cap
 2020-Jun-02 00:00     20 10 53.75 -19 36 37.7     n.a.    n.a.  9.40507929068628 -20.9816963  131.0307 /L    4.3491   Cap
 2020-Jun-03 00:00     20 10 45.08 -19 37 10.0     n.a.    n.a.  9.39305610734492 -20.6527294  132.0234 /L    4.2833   Cap
 2020-Jun-04 00:00     20 10 36.06 -19 37 43.3     n.a.    n.a.  9.38122464590136 -20.3177871  133.0171 /L    4.2162   Cap
 2020-Jun-05 00:00     20 10 26.71 -19 38 17.8     n.a.    n.a.  9.36958834389062 -19.9769044  134.0118 /L    4.1477   Cap
 2020-Jun-06 00:00     20 10 17.03 -19 38 53.3     n.a.    n.a.  9.35815063825212 -19.6300504  135.0077 /L    4.0778   Cap
 2020-Jun-07 00:00     20 10 07.02 -19 39 29.9     n.a.    n.a.  9.34691499857428 -19.2771471  136.0046 /L    4.0067   Cap
 2020-Jun-08 00:00     20 09 56.68 -19 40 07.6     n.a.    n.a.  9.33588494650516 -18.9180970  137.0026 /L    3.9342   Cap
 2020-Jun-09 00:00     20 09 46.02 -19 40 46.2     n.a.    n.a.  9.32506405922042 -18.5528092  138.0016 /L    3.8604   Cap
 2020-Jun-10 00:00     20 09 35.05 -19 41 25.9     n.a.    n.a.  9.31445595967218 -18.1812184  139.0018 /L    3.7853   Cap
 2020-Jun-11 00:00     20 09 23.77 -19 42 06.6     n.a.    n.a.  9.30406429907470 -17.8032926  140.0031 /L    3.7090   Cap
 2020-Jun-12 00:00     20 09 12.18 -19 42 48.3     n.a.    n.a.  9.29389273713906 -17.4190338  141.0054 /L    3.6314   Cap
 2020-Jun-13 00:00     20 09 00.29 -19 43 30.9     n.a.    n.a.  9.28394492391389 -17.0284725  142.0089 /L    3.5527   Cap
 2020-Jun-14 00:00     20 08 48.11 -19 44 14.5     n.a.    n.a.  9.27422448503087 -16.6316616  143.0134 /L    3.4727   Cap
 2020-Jun-15 00:00     20 08 35.63 -19 44 58.9     n.a.    n.a.  9.26473501051054 -16.2286708  144.0189 /L    3.3915   Cap
 2020-Jun-16 00:00     20 08 22.87 -19 45 44.3     n.a.    n.a.  9.25548004626697 -15.8195827  145.0255 /L    3.3093   Cap
 2020-Jun-17 00:00     20 08 09.83 -19 46 30.6     n.a.    n.a.  9.24646308694220 -15.4044924  146.0331 /L    3.2258   Cap
 2020-Jun-18 00:00     20 07 56.52 -19 47 17.7     n.a.    n.a.  9.23768756852637 -14.9835084  147.0417 /L    3.1413   Cap
 2020-Jun-19 00:00     20 07 42.94 -19 48 05.6     n.a.    n.a.  9.22915685929868 -14.5567575  148.0512 /L    3.0557   Cap
 2020-Jun-20 00:00     20 07 29.10 -19 48 54.3     n.a.    n.a.  9.22087424786847 -14.1243898  149.0617 /L    2.9691   Cap
 2020-Jun-21 00:00     20 07 15.01 -19 49 43.8     n.a.    n.a.  9.21284292769953 -13.6865857  150.0731 /L    2.8814   Sgr
 2020-Jun-22 00:00     20 07 00.67 -19 50 34.1     n.a.    n.a.  9.20506597838545 -13.2435597  151.0853 /L    2.7928   Sgr
